OSCAR 7 (AO-7)          
1 07530U 74089B   23162.85238494 -.00000025  00000+0  13467-3 0  9991
2 07530 101.9464 149.4935 0012655  74.2041  42.2655 12.53664692222503
PHASE 3B (AO-10)        
1 14129U 83058B   23162.02958559 -.00000078  00000+0  00000+0 0  9992
2 14129  27.2272  37.7644 6033940 179.2538 182.3396  2.05866970272794
UOSAT 2 (UO-11)         
1 14781U 84021B   23162.86894203  .00001633  00000+0  19799-3 0  9990
2 14781  97.6567 140.0055 0007206 209.8850 150.1955 14.84890197 93352
LUSAT (LO-19)           
1 20442U 90005G   23162.86531215  .00000211  00000+0  93581-4 0  9994
2 20442  98.8432 139.2673 0011461 188.9790 171.1190 14.33261950744586
EYESAT A (AO-27)        
1 22825U 93061C   23162.89148633  .00000152  00000+0  76030-4 0  9991
2 22825  98.8409 205.6966 0009589  84.7726 275.4550 14.30307950549534
ITAMSAT (IO-26)         
1 22826U 93061D   23162.89625166  .00000178  00000+0  85800-4 0  9996
2 22826  98.8355 205.5648 0010043  72.1654 288.0622 14.30669026549804
RADIO ROSTO (RS-15)     
1 23439U 94085A   23162.85783949 -.00000042  00000+0  25337-4 0  9994
2 23439  64.8174 284.3047 0162548 211.1550 147.9656 11.27574467171722
JAS-2 (FO-29)           
1 24278U 96046B   23162.64521436  .00000033  00000+0  66797-4 0  9997
2 24278  98.5278 141.9554 0351305  71.3224 292.5708 13.53145970324188
TECHSAT 1B (GO-32)      
1 25397U 98043D   23162.80957901  .00000128  00000+0  75515-4 0  9990
2 25397  98.8684 120.2192 0002065 121.7914 238.3465 14.23877673294561
ISS (ZARYA)             
1 25544U 98067A   23162.99051360  .00011947  00000+0  21179-3 0  9991
2 25544  51.6424 354.2919 0005358  72.9304  85.0154 15.50685938400987
PCSAT (NO-44)           
1 26931U 01043C   23162.88860162  .00000146  00000+0  87230-4 0  9996
2 26931  67.0500 210.5067 0008038 273.2656  86.7526 14.30924189132823
SAUDISAT 1C (SO-50)     
1 27607U 02058C   23162.81754941  .00001743  00000+0  25527-3 0  9998
2 27607  64.5549 281.3914 0069571 225.7826 133.7552 14.77300919101431
CUTE-1 (CO-55)          
1 27844U 03031E   23162.90501143  .00000421  00000+0  20719-3 0  9997
2 27844  98.6772 170.2394 0010671 135.8264 224.3768 14.22784465 34985
CUBESAT XI-IV (CO-57)   
1 27848U 03031J   23162.77358498  .00000363  00000+0  18295-3 0  9990
2 27848  98.6807 170.5277 0010308 150.1777 209.9990 14.22294582 34732
MOZHAYETS 4 (RS-22)     
1 27939U 03042A   23162.95772340  .00001428  00000+0  25544-3 0  9997
2 27939  98.2427 309.8791 0013211 148.5739 324.2028 14.68382866 53647
CUBESAT XI-V            
1 28895U 05043F   23162.81479212  .00001815  00000+0  34203-3 0  9991
2 28895  98.1533 294.9157 0017560  90.0134 270.3082 14.65652959940025
CUTE-1.7+APD II (CO-65) 
1 32785U 08021C   23162.63161036  .00003684  00000+0  36601-3 0  9995
2 32785  97.7049 128.7055 0013653 118.4109 241.8488 14.92247086819997
DELFI-C3 (DO-64)        
1 32789U 08021G   23162.69608420  .00058379  00000+0  16506-2 0  9990
2 32789  97.3028 184.2210 0009268 135.6609 224.5379 15.36083515826547
SEEDS II (CO-66)        
1 32791U 08021J   23162.65643621  .00006246  00000+0  55152-3 0  9998
2 32791  97.6543 134.0080 0013722  74.2329 286.0405 14.96645225820836
YUBILEINY (RS-30)       
1 32953U 08025A   23162.89268113  .00000051  00000+0  29228-3 0  9990
2 32953  82.5022 320.3886 0019520 193.4936 166.5624 12.43125108682851
KKS-1 (KISEKI)          
1 33499U 09002H   23162.84066256  .00001375  00000+0  20236-3 0  9991
2 33499  98.1739  55.0897 0007454 240.8002 119.2462 14.77065320773273
SWISSCUBE               
1 35932U 09051B   23162.90533224  .00001175  00000+0  26786-3 0  9994
2 35932  98.5220  33.1373 0008213  31.2902 328.8783 14.57723724728447
BEESAT-1                
1 35933U 09051C   23162.86685310  .00001024  00000+0  23523-3 0  9993
2 35933  98.5149  34.4308 0006655  44.4448 315.7283 14.57632100728514
ITUPSAT1                
1 35935U 09051E   23162.90359655  .00000937  00000+0  22072-3 0  9990
2 35935  98.5249  34.4156 0008987  46.2594 313.9346 14.56682157728190
XIWANG-1 (HOPE-1)       
1 36122U 09072B   23162.84150021  .00000005  00000+0  12555-3 0  9992
2 36122 100.2375 126.8869 0006871 232.4273 127.6217 13.16383695648097
JUGNU                   
1 37839U 11058B   23162.34207138  .00000449  00000+0  96325-4 0  9992
2 37839  19.9591 158.3938 0018978 154.0445 339.8147 14.12961116602958
SRMSAT                  
1 37841U 11058D   23162.93369378  .00000448  00000+0  10066-3 0  9991
2 37841  19.9711 241.7913 0011830 335.0019 179.5344 14.10900924602061
M-CUBED & EXP-1 PRIME   
1 37855U 11061F   23162.83026064  .00034890  00000+0  10937-2 0  9995
2 37855 101.7054 121.5183 0120196  57.0602 304.2112 15.26159321635741
STRAND-1                
1 39090U 13009E   23162.77581666  .00000377  00000+0  14543-3 0  9990
2 39090  98.3889 356.2857 0007718 282.8147  77.2176 14.35601322538945
SOMP                    
1 39134U 13015E   23162.78892466  .00118572  00000+0  13455-2 0  9997
2 39134  64.8485 303.9074 0018434 263.3030  96.6020 15.61547616562143
BEESAT-3                
1 39135U 13015F   23161.87758890  .00039407  00000+0  89331-3 0  9995
2 39135  64.8593 358.2020 0020597 242.1561 117.7490 15.42655777560966
BEESAT-2                
1 39136U 13015G   23162.29987530  .00032607  00000+0  81309-3 0  9990
2 39136  64.8696   8.2536 0027112 272.9183  86.8851 15.39687942560777
ZACUBE-1 (TSHEPISOSAT)  
1 39417U 13066B   23162.84123353  .00004241  00000+0  49142-3 0  9996
2 39417  97.6846 124.6946 0053407 306.3169  53.3122 14.84965986516407
GOMX-1                  
1 39430U 13066Q   23162.91707937  .00002804  00000+0  49147-3 0  9993
2 39430  97.7808  54.3636 0145393 350.7346   9.1178 14.61822281508587
CUBEBUG-2 (LO-74)       
1 39440U 13066AA  23162.75827171  .00004236  00000+0  54734-3 0  9998
2 39440  97.7716 111.6867 0076750  45.8650 314.8840 14.79386668513355
FUNCUBE-1 (AO-73)       
1 39444U 13066AE  23162.87747081  .00004270  00000+0  47540-3 0  9991
2 39444  97.6708 127.2710 0051352 291.1719  68.4014 14.86662694514857
UWE-3                   
1 39446U 13066AG  23162.75925530  .00004521  00000+0  55494-3 0  9993
2 39446  97.7340 117.8540 0065500 358.4451   1.6548 14.82043809513620
SPROUT                  
1 39770U 14029E   23162.29838220  .00019392  00000+0  14792-2 0  9998
2 39770  97.9865 289.3570 0006011 321.4390  38.6404 15.02045002491273
UNISAT-6                
1 40012U 14033C   23162.57045278  .00002803  00000+0  39614-3 0  9998
2 40012  97.6729 336.9001 0056978  75.0803 285.6707 14.76775591482943
DUCHIFAT-1              
1 40021U 14033M   23162.47620562  .00006610  00000+0  56595-3 0  9999
2 40021  98.0570 126.2496 0009678 298.5039  61.5207 14.97893167488336
QB50P1                  
1 40025U 14033R   23162.84275927  .00004796  00000+0  45639-3 0  9995
2 40025  97.9958 109.5059 0010092 318.6264  41.4190 14.93884565487349
ZDPS 2A                 
1 40901U 15049C   23162.67439101  .00039908  00000+0  93649-3 0  9990
2 40901  97.4439 177.8805 0010010 140.7708 219.4266 15.41891539428399
ZDPS 2B                 
1 40902U 15049D   23162.89758709  .00046619  00000+0  10453-2 0  9991
2 40902  97.4550 176.5478 0010123 137.2877 222.9159 15.43220134428422
KAITUO 1A               
1 40904U 15049F   23162.90659997  .00015007  00000+0  57982-3 0  9990
2 40904  97.4973 168.7398 0011297 184.0945 176.0203 15.26289153427500
2015-049G               
1 40905U 15049G   23162.89672760  .00006818  00000+0  31107-3 0  9993
2 40905  97.5230 165.4835 0013043 195.2304 164.8540 15.20873585427154
XW-2C                   
1 40906U 15049H   23162.91177709  .00012907  00000+0  49869-3 0  9990
2 40906  97.4933 170.0317 0012165 170.9850 189.1609 15.26315335427595
XW-2D                   
1 40907U 15049J   23162.93729261  .00014701  00000+0  53562-3 0  9998
2 40907  97.4914 170.5754 0011550 163.3679 196.7941 15.28234205427688
LILACSAT-2              
1 40908U 15049K   23162.95595664  .00006371  00000+0  30121-3 0  9999
2 40908  97.5245 166.0275 0013331 200.9975 159.0714 15.19667532427000
XW-2E                   
1 40909U 15049L   23162.85280915  .00031753  00000+0  84480-3 0  9998
2 40909  97.4526 176.6769 0010828 133.6413 226.5732 15.38102784428324
XW-2F                   
1 40910U 15049M   23162.84813070  .00031597  00000+0  85821-3 0  9999
2 40910  97.4618 175.9089 0011569 136.3214 223.8948 15.37455493428198
XW-2B                   
1 40911U 15049N   23162.86703993  .00014263  00000+0  52332-3 0  9996
2 40911  97.4894 170.9450 0011455 165.1613 194.9965 15.28009654427559
KAITUO 1B               
1 40912U 15049P   23162.89092564  .00040584  00000+0  90130-3 0  9998
2 40912  97.4169 180.5686 0011238 104.2447 256.0050 15.43523764428793
LAPAN-A2                
1 40931U 15052B   23162.35241229  .00001200  00000+0  76484-4 0  9997
2 40931   5.9989 128.1506 0013343 214.4965 145.4296 14.77234560416378
E-ST@R-II               
1 41459U 16025D   23162.78830814  .00034817  00000+0  10077-2 0  9999
2 41459  98.1872   3.5416 0108464 118.0390 243.1869 15.29765859392075
AAUSAT 4                
1 41460U 16025E   23162.86259863  .00125968  00000+0  16662-2 0  9993
2 41460  98.1610  16.1128 0058975  73.4917 287.2804 15.55808737392943
NUSAT-1 (FRESCO)        
1 41557U 16033B   23162.88798528  .00065647  00000+0  84180-3 0  9995
2 41557  97.3875 270.5678 0007491 158.7819 201.3750 15.58913995392803
BEESAT-4                
1 41619U 16040W   23162.85820022  .00092393  00000+0  11662-2 0  9996
2 41619  97.1579 212.3919 0004949 224.0480 136.0383 15.59253191376049
CAS-2T & KS-1Q          
1 41847U 16066G   23162.81824436  .00001458  00000+0  22640-3 0  9997
2 41847  98.5042 231.3965 0359213 213.3966 144.4098 14.39670374346036
NAYIF-1 (EO-88)         
1 42017U 17008BX  23162.76125358  .00246418  00000+0  13908-2 0  9998
2 42017  97.2081 233.8730 0002819 218.6154 141.4912 15.78466817352618
